[{"OBJECT_NAME":"STARLINK-32753","OBJECT_ID":"2024-254V","EPOCH":"2026-03-09T05:09:56.637504","MEAN_MOTION":15.27576831,"ECCENTRICITY":0.00016837,"INCLINATION":42.9998,"RA_OF_ASC_NODE":18.7697,"ARG_OF_PERICENTER":279.1962,"MEAN_ANOMALY":80.87,"EPHEMERIS_TYPE":0,"CLASSIFICATION_TYPE":"U","NORAD_CAT_ID":62481,"ELEMENT_SET_NO":999,"REV_AT_EPOCH":6758,"BSTAR":0.0010958864,"MEAN_MOTION_DOT":0.00030014,"MEAN_MOTION_DDOT":0},{"OBJECT_NAME":"OBJECT P","OBJECT_ID":"2018-099P","EPOCH":"2026-03-09T16:35:55.790016","MEAN_MOTION":15.30834106,"ECCENTRICITY":0.00076856,"INCLINATION":97.4366,"RA_OF_ASC_NODE":131.9195,"ARG_OF_PERICENTER":276.7627,"MEAN_ANOMALY":83.2739,"EPHEMERIS_TYPE":0,"CLASSIFICATION_TYPE":"U","NORAD_CAT_ID":43771,"ELEMENT_SET_NO":999,"REV_AT_EPOCH":39830,"BSTAR":0.00063632878,"MEAN_MOTION_DOT":0.00018926,"MEAN_MOTION_DDOT":0}]
